{
  "type": "FeatureCollection",
  "features": [
    {
      "type": "Feature",
      "properties": {
        "norad_id": 30013,
        "name": "FENGYUN 1C DEB",
        "group": "fengyun-1c-debris",
        "lat": 47.77345554395719,
        "lon": 5.888065627227539,
        "alt_km": 852.0438842510284,
        "timestamp": "2025-12-22T22:44:21.248668+00:00",
        "meta_object_name": "FENGYUN 1C DEB",
        "meta_object_id": "1999-025MN",
        "meta_epoch": "2025-12-22T14:27:27.175968",
        "meta_mean_motion": 13.87831486,
        "meta_eccentricity": 0.012791,
        "meta_inclination": 99.5794,
        "meta_ra_of_asc_node": 16.2575,
        "meta_arg_of_pericenter": 17.8526,
        "meta_mean_anomaly": 107.0066,
        "meta_ephemeris_type": 0,
        "meta_classification_type": "U",
        "meta_norad_cat_id": 30013,
        "meta_element_set_no": 999,
        "meta_rev_at_epoch": 95818,
        "meta_bstar": 0.00022820048,
        "meta_mean_motion_dot": 2.42e-06,
        "meta_mean_motion_ddot": 0,
        "tle_line1": "1 30013U 99025MN  25356.60239787  .00000242  00000+0  22820-3 0  9999",
        "tle_line2": "2 30013  99.5794  16.2575 0127910  17.8526 107.0066 13.87831486958187"
      },
      "geometry": {
        "type": "Point",
        "coordinates": [
          5.888065627227539,
          47.77345554395719
        ]
      }
    },
    {
      "type": "Feature",
      "properties": {
        "norad_id": 30015,
        "name": "FENGYUN 1C DEB",
        "group": "fengyun-1c-debris",
        "lat": 38.27751482526856,
        "lon": -6.920896387418378,
        "alt_km": 770.8688093999717,
        "timestamp": "2025-12-22T22:44:21.248679+00:00",
        "meta_object_name": "FENGYUN 1C DEB",
        "meta_object_id": "1999-025MQ",
        "meta_epoch": "2025-12-22T11:31:31.766592",
        "meta_mean_motion": 14.30825995,
        "meta_eccentricity": 0.00386744,
        "meta_inclination": 99.2284,
        "meta_ra_of_asc_node": 359.9544,
        "meta_arg_of_pericenter": 97.2465,
        "meta_mean_anomaly": 56.6938,
        "meta_ephemeris_type": 0,
        "meta_classification_type": "U",
        "meta_norad_cat_id": 30015,
        "meta_element_set_no": 999,
        "meta_rev_at_epoch": 98312,
        "meta_bstar": 0.00049633185,
        "meta_mean_motion_dot": 1.263e-05,
        "meta_mean_motion_ddot": 0,
        "tle_line1": "1 30015U 99025MQ  25356.48022878  .00001263  00000+0  49633-3 0  9993",
        "tle_line2": "2 30015  99.2284 359.9544 0038674  97.2465  56.6938 14.30825995983121"
      },
      "geometry": {
        "type": "Point",
        "coordinates": [
          -6.920896387418378,
          38.27751482526856
        ]
      }
    },
    {
      "type": "Feature",
      "properties": {
        "norad_id": 30016,
        "name": "FENGYUN 1C DEB",
        "group": "fengyun-1c-debris",
        "lat": 56.549118303550316,
        "lon": -156.2847308327223,
        "alt_km": 640.3787693633576,
        "timestamp": "2025-12-22T22:44:21.248689+00:00",
        "meta_object_name": "FENGYUN 1C DEB",
        "meta_object_id": "1999-025MR",
        "meta_epoch": "2025-12-22T13:07:47.059680",
        "meta_mean_motion": 14.78746203,
        "meta_eccentricity": 0.00461716,
        "meta_inclination": 98.904,
        "meta_ra_of_asc_node": 9.5454,
        "meta_arg_of_pericenter": 10.4898,
        "meta_mean_anomaly": 141.091,
        "meta_ephemeris_type": 0,
        "meta_classification_type": "U",
        "meta_norad_cat_id": 30016,
        "meta_element_set_no": 999,
        "meta_rev_at_epoch": 99598,
        "meta_bstar": 0.0020107297,
        "meta_mean_motion_dot": 0.00014996,
        "meta_mean_motion_ddot": 0,
        "tle_line1": "1 30016U 99025MR  25356.54707245  .00014996  00000+0  20107-2 0  9990",
        "tle_line2": "2 30016  98.9040   9.5454 0046171  10.4898 141.0910 14.78746203995986"
      },
      "geometry": {
        "type": "Point",
        "coordinates": [
          -156.2847308327223,
          56.549118303550316
        ]
      }
    },
    {
      "type": "Feature",
      "properties": {
        "norad_id": 30017,
        "name": "FENGYUN 1C DEB",
        "group": "fengyun-1c-debris",
        "lat": -18.713533877773262,
        "lon": 45.12376071650128,
        "alt_km": 840.9097159926614,
        "timestamp": "2025-12-22T22:44:21.248699+00:00",
        "meta_object_name": "FENGYUN 1C DEB",
        "meta_object_id": "1999-025MS",
        "meta_epoch": "2025-12-22T01:27:50.728320",
        "meta_mean_motion": 14.61216242,
        "meta_eccentricity": 0.02178837,
        "meta_inclination": 98.7533,
        "meta_ra_of_asc_node": 41.194,
        "meta_arg_of_pericenter": 146.4416,
        "meta_mean_anomaly": 215.0806,
        "meta_ephemeris_type": 0,
        "meta_classification_type": "U",
        "meta_norad_cat_id": 30017,
        "meta_element_set_no": 999,
        "meta_rev_at_epoch": 580,
        "meta_bstar": 0.00013606053,
        "meta_mean_motion_dot": 8.73e-06,
        "meta_mean_motion_ddot": 0,
        "tle_line1": "1 30017U 99025MS  25356.06100380  .00000873  00000+0  13606-3 0  9991",
        "tle_line2": "2 30017  98.7533  41.1940 0217883 146.4416 215.0806 14.61216242  5806"
      },
      "geometry": {
        "type": "Point",
        "coordinates": [
          45.12376071650128,
          -18.713533877773262
        ]
      }
    },
    {
      "type": "Feature",
      "properties": {
        "norad_id": 30018,
        "name": "FENGYUN 1C DEB",
        "group": "fengyun-1c-debris",
        "lat": 79.77358930949956,
        "lon": -40.93643561206989,
        "alt_km": 611.8895545260093,
        "timestamp": "2025-12-22T22:44:21.248710+00:00",
        "meta_object_name": "FENGYUN 1C DEB",
        "meta_object_id": "1999-025MT",
        "meta_epoch": "2025-12-22T11:10:14.253600",
        "meta_mean_motion": 14.73283236,
        "meta_eccentricity": 0.01169379,
        "meta_inclination": 98.7552,
        "meta_ra_of_asc_node": 79.8667,
        "meta_arg_of_pericenter": 165.0423,
        "meta_mean_anomaly": 256.4143,
        "meta_ephemeris_type": 0,
        "meta_classification_type": "U",
        "meta_norad_cat_id": 30018,
        "meta_element_set_no": 999,
        "meta_rev_at_epoch": 580,
        "meta_bstar": 0.00082807452,
        "meta_mean_motion_dot": 5.909e-05,
        "meta_mean_motion_ddot": 0,
        "tle_line1": "1 30018U 99025MT  25356.46544275  .00005909  00000+0  82807-3 0  9995",
        "tle_line2": "2 30018  98.7552  79.8667 0116937 165.0423 256.4143 14.73283236  5808"
      },
      "geometry": {
        "type": "Point",
        "coordinates": [
          -40.93643561206989,
          79.77358930949956
        ]
      }
    },
    {
      "type": "Feature",
      "properties": {
        "norad_id": 30020,
        "name": "FENGYUN 1C DEB",
        "group": "fengyun-1c-debris",
        "lat": -10.60017323719648,
        "lon": 178.83116046629755,
        "alt_km": 995.712775242253,
        "timestamp": "2025-12-22T22:44:21.248720+00:00",
        "meta_object_name": "FENGYUN 1C DEB",
        "meta_object_id": "1999-025MV",
        "meta_epoch": "2025-12-22T12:17:57.024384",
        "meta_mean_motion": 14.044818,
        "meta_eccentricity": 0.01839328,
        "meta_inclination": 98.8471,
        "meta_ra_of_asc_node": 0.0774,
        "meta_arg_of_pericenter": 43.2578,
        "meta_mean_anomaly": 108.0288,
        "meta_ephemeris_type": 0,
        "meta_classification_type": "U",
        "meta_norad_cat_id": 30020,
        "meta_element_set_no": 999,
        "meta_rev_at_epoch": 96795,
        "meta_bstar": 0.00036032445,
        "meta_mean_motion_dot": 6.26e-06,
        "meta_mean_motion_ddot": 0,
        "tle_line1": "1 30020U 99025MV  25356.51246556  .00000626  00000+0  36032-3 0  9995",
        "tle_line2": "2 30020  98.8471   0.0774 0183932  43.2578 108.0288 14.04481800967950"
      },
      "geometry": {
        "type": "Point",
        "coordinates": [
          178.83116046629755,
          -10.60017323719648
        ]
      }
    },
    {
      "type": "Feature",
      "properties": {
        "norad_id": 30021,
        "name": "FENGYUN 1C DEB",
        "group": "fengyun-1c-debris",
        "lat": 7.4506343576552805,
        "lon": -12.958742360091925,
        "alt_km": 895.7810967437781,
        "timestamp": "2025-12-22T22:44:21.248730+00:00",
        "meta_object_name": "FENGYUN 1C DEB",
        "meta_object_id": "1999-025MW",
        "meta_epoch": "2025-12-22T11:28:25.636800",
        "meta_mean_motion": 14.04895315,
        "meta_eccentricity": 0.00717769,
        "meta_inclination": 98.836,
        "meta_ra_of_asc_node": 347.7498,
        "meta_arg_of_pericenter": 259.5068,
        "meta_mean_anomaly": 254.6689,
        "meta_ephemeris_type": 0,
        "meta_classification_type": "U",
        "meta_norad_cat_id": 30021,
        "meta_element_set_no": 999,
        "meta_rev_at_epoch": 97068,
        "meta_bstar": -2.3061366e-05,
        "meta_mean_motion_dot": -8.2e-07,
        "meta_mean_motion_ddot": 0,
        "tle_line1": "1 30021U 99025MW  25356.47807450 -.00000082  00000+0 -23061-4 0  9994",
        "tle_line2": "2 30021  98.8360 347.7498 0071776 259.5068 254.6689 14.04895315970687"
      },
      "geometry": {
        "type": "Point",
        "coordinates": [
          -12.958742360091925,
          7.4506343576552805
        ]
      }
    }
  ]
}